BLUEBON                 
1 62688U 25009CH  26068.70316231  .00010452  00000+0  37313-3 0  9992
2 62688  97.4017 152.2033 0001193  43.3900 316.7434 15.29047253 63767
STARLINK-33822          
1 63658U 25083AA  26068.22303676  .00037202  00000+0  13543-2 0  9998
2 63658  43.0043   7.9983 0002016 254.4439 105.6190 15.27587513 50023
